UNKNOWN                 
1 82829U          26047.73549546  .00000186  00000+0  62868-2 0  9997
2 82829  65.1038 312.4892 0178136 322.2986  65.4853 11.29162853493534
UNKNOWN                 
1 82854U          26057.15896423  .00002064  00000+0  16033-2 0  9991
2 82854  82.6904   5.4338 0131602  66.5162 294.9769 13.88095661618266
UNKNOWN                 
1 82873U          26053.52346415  .00003484  00000+0  14981-2 0  9997
2 82873  99.9941 322.5434 0039712  81.4823 279.0849 14.25025181631459
UNKNOWN                 
1 82875U          26052.74272912  .00000606  00000+0  16746-3 0  9997
2 82875  98.6843  39.3736 0379457  79.2474 285.1173 14.15262019554517
UNKNOWN                 
1 82893U          26058.79554823  .00008197  00000+0  29892-2 0  9990
2 82893  98.9591 181.4443 0027905 179.3466 180.7758 14.33111946435008
UNKNOWN                 
1 82912U          26059.22142011  .00001413  00000+0  60990-3 0  9992
2 82912  65.8371 355.6186 0771256 233.7766 118.9593 13.28366017589612
UNKNOWN                 
1 82961U          26058.88630482  .00015410  00000+0  21412-1 0  9997
2 82961  99.8240 214.4334 0429617 185.2290 174.4265 13.25733470565928
UNKNOWN                 
1 82965U          26059.07102743  .00000994  00000+0  13913-2 0  9996
2 82965 100.1087 146.0991 0003131 186.2892 173.8208 13.60198576534965
UNKNOWN                 
1 83903U          26059.54731534 -.00000401  00000+0  00000+0 0  9991
2 83903   5.9928 289.9326 0122258 253.6025 310.5756  0.99116792 44436
UNKNOWN                 
1 83934U          26058.94831039 -.00000006  00000+0  00000+0 0  9990
2 83934   5.6095 297.0036 0224674 275.7237 282.1708  1.02661092 46071
UNKNOWN                 
1 84006U          26057.47845973  .00000051  00000+0  00000+0 0  9999
2 84006  22.3791 162.0417 6163628  87.2630 337.0722  2.16232571 85863
UNKNOWN                 
1 84188U          26059.36854196  .00160076  00000+0  81609-1 0  9997
2 84188  64.8753 187.2219 3522540   9.6794 355.6895  8.02274987 47357
